start=new Date('2023-01-11T00:00:00.000Z').valueOf();
sats=[{"DECAY_DATE":null,"BSTAR":"0.00021318000000","ECCENTRICITY":"0.00016110","INCLINATION":"53.0519","RA_OF_ASC_NODE":"23.2336","MEAN_MOTION_DDOT":"0.0000000000000","CENTER_NAME":"EARTH","MEAN_ELEMENT_THEORY":"SGP4","NORAD_CAT_ID":"48008","REV_AT_EPOCH":"10186","MEAN_MOTION":"15.06401965","SITE":"AFETR","EPHEMERIS_TYPE":"0","MEAN_MOTION_DOT":"0.00002895","EPOCH":"2023-01-10T10:41:06.177696","RCS_SIZE":"LARGE","MEAN_ANOMALY":"298.1266","REF_FRAME":"TEME","TLE_LINE2":"2 48008  53.0519  23.2336 0001611  61.9886 298.1266 15.06401965101868","LAUNCH_DATE":"2021-03-24","COUNTRY_CODE":"US","CLASSIFICATION_TYPE":"U","ARG_OF_PERICENTER":"61.9886","TLE_LINE1":"1 48008U 21024AH  23010.44521039  .00002895  00000-0  21318-3 0  9995","OBJECT_NAME":"STARLINK-2271","APOAPSIS":"548.323","OBJECT_ID":"2021-024AH","SEMIMAJOR_AXIS":"6925.343","FILE":"3739038","PERIAPSIS":"546.092","GP_ID":"222661876","PERIOD":"95.592","TIME_SYSTEM":"UTC","OBJECT_TYPE":"PAYLOAD","ELEMENT_SET_NO":"999"},{"ARG_OF_PERICENTER":"50.0777","TLE_LINE1":"1 48009U 21024AJ  23010.50372973  .00000298  00000-0  38941-4 0  9990","LAUNCH_DATE":"2021-03-24","COUNTRY_CODE":"US","CLASSIFICATION_TYPE":"U","OBJECT_NAME":"STARLINK-2153","APOAPSIS":"548.754","OBJECT_ID":"2021-024AJ","SEMIMAJOR_AXIS":"6925.324","GP_ID":"222662126","PERIOD":"95.592","FILE":"3739038","PERIAPSIS":"545.623","ELEMENT_SET_NO":"999","OBJECT_TYPE":"PAYLOAD","TIME_SYSTEM":"UTC","DECAY_DATE":null,"BSTAR":"0.00003894100000","MEAN_MOTION_DDOT":"0.0000000000000","CENTER_NAME":"EARTH","ECCENTRICITY":"0.00022600","INCLINATION":"53.0536","RA_OF_ASC_NODE":"97.9712","MEAN_MOTION":"15.06408140","SITE":"AFETR","EPHEMERIS_TYPE":"0","MEAN_MOTION_DOT":"0.00000298","NORAD_CAT_ID":"48009","MEAN_ELEMENT_THEORY":"SGP4","REV_AT_EPOCH":"10082","RCS_SIZE":"LARGE","EPOCH":"2023-01-10T12:05:22.248672","MEAN_ANOMALY":"310.0410","TLE_LINE2":"2 48009  53.0536  97.9712 0002260  50.0777 310.0410 15.06408140100825","REF_FRAME":"TEME"},{"NORAD_CAT_ID":"48010","MEAN_ELEMENT_THEORY":"SGP4","REV_AT_EPOCH":"10057","MEAN_MOTION":"15.06399128","SITE":"AFETR","EPHEMERIS_TYPE":"0","MEAN_MOTION_DOT":"0.00000701","EPOCH":"2023-01-10T17:10:34.281984","RCS_SIZE":"LARGE","MEAN_ANOMALY":"293.5018","REF_FRAME":"TEME","TLE_LINE2":"2 48010  53.0541 117.0181 0001474  66.6126 293.5018 15.06399128100570","DECAY_DATE":null,"BSTAR":"0.00006592300000","ECCENTRICITY":"0.00014740","INCLINATION":"53.0541","RA_OF_ASC_NODE":"117.0181","MEAN_MOTION_DDOT":"0.0000000000000","CENTER_NAME":"EARTH","PERIAPSIS":"546.195","FILE":"3739267","GP_ID":"222719862","PERIOD":"95.592","TIME_SYSTEM":"UTC","ELEMENT_SET_NO":"999","OBJECT_TYPE":"PAYLOAD","LAUNCH_DATE":"2021-03-24","CLASSIFICATION_TYPE":"U","COUNTRY_CODE":"US","ARG_OF_PERICENTER":"66.6126","TLE_LINE1":"1 48010U 21024AK  23010.71567456  .00000701  00000-0  65923-4 0  9996","APOAPSIS":"548.237","OBJECT_NAME":"STARLINK-2226","OBJECT_ID":"2021-024AK","SEMIMAJOR_AXIS":"6925.351"},{"OBJECT_NAME":"STARLINK-2272","APOAPSIS":"548.662","SEMIMAJOR_AXIS":"6925.370","OBJECT_ID":"2021-024AL","LAUNCH_DATE":"2021-03-24","CLASSIFICATION_TYPE":"U","COUNTRY_CODE":"US","ARG_OF_PERICENTER":"46.8355","TLE_LINE1":"1 48011U 21024AL  23010.60599936  .00000356  00000-0  42813-4 0  9992","TIME_SYSTEM":"UTC","ELEMENT_SET_NO":"999","OBJECT_TYPE":"PAYLOAD","FILE":"3739267","PERIAPSIS":"545.808","PERIOD":"95.593","GP_ID":"222720112","RA_OF_ASC_NODE":"97.5100","ECCENTRICITY":"0.00020600","INCLINATION":"53.0536","MEAN_MOTION_DDOT":"0.0000000000000","CENTER_NAME":"EARTH","BSTAR":"0.00004281300000","DECAY_DATE":null,"REF_FRAME":"TEME","TLE_LINE2":"2 48011  53.0536  97.5100 0002060  46.8355 313.2806 15.06392996100890","RCS_SIZE":"LARGE","EPOCH":"2023-01-10T14:32:38.344704","MEAN_ANOMALY":"313.2806","REV_AT_EPOCH":"10089","NORAD_CAT_ID":"48011","MEAN_ELEMENT_THEORY":"SGP4","SITE":"AFETR","EPHEMERIS_TYPE":"0","MEAN_MOTION_DOT":"0.00000356","MEAN_MOTION":"15.06392996"},{"BSTAR":"0.00093447000000","DECAY_DATE":null,"RA_OF_ASC_NODE":"339.2581","INCLINATION":"53.0496","ECCENTRICITY":"0.00050160","CENTER_NAME":"EARTH","MEAN_MOTION_DDOT":"0.0000000000000","REV_AT_EPOCH":"10256","MEAN_ELEMENT_THEORY":"SGP4","NORAD_CAT_ID":"48012","EPHEMERIS_TYPE":"0","MEAN_MOTION_DOT":"0.00073970","SITE":"AFETR","MEAN_MOTION":"15.58897619","TLE_LINE2":"2 48012  53.0496 339.2581 0005016  58.3585 301.7916 15.58897619102561","REF_FRAME":"TEME","MEAN_ANOMALY":"301.7916","EPOCH":"2023-01-10T14:48:02.150784","RCS_SIZE":"LARGE","COUNTRY_CODE":"US","CLASSIFICATION_TYPE":"U","LAUNCH_DATE":"2021-03-24","TLE_LINE1":"1 48012U 21024AM  23010.61669156  .00073970  00000-0  93447-3 0  9996","ARG_OF_PERICENTER":"58.3585","SEMIMAJOR_AXIS":"6768.983","OBJECT_ID":"2021-024AM","OBJECT_NAME":"STARLINK-2216","APOAPSIS":"394.244","FILE":"3739267","PERIAPSIS":"387.453","PERIOD":"92.373","GP_ID":"222720358","TIME_SYSTEM":"UTC","ELEMENT_SET_NO":"999","OBJECT_TYPE":"PAYLOAD"},{"COUNTRY_CODE":"US","CLASSIFICATION_TYPE":"U","LAUNCH_DATE":"2021-03-24","TLE_LINE1":"1 48013U 21024AN  23010.49590655  .00000573  00000-0  57390-4 0  9997","ARG_OF_PERICENTER":"42.7835","SEMIMAJOR_AXIS":"6925.347","OBJECT_ID":"2021-024AN","APOAPSIS":"548.501","OBJECT_NAME":"STARLINK-2243","PERIAPSIS":"545.924","FILE":"3739038","PERIOD":"95.592","GP_ID":"222661626","TIME_SYSTEM":"UTC","ELEMENT_SET_NO":"999","OBJECT_TYPE":"PAYLOAD","BSTAR":"0.00005739000000","DECAY_DATE":null,"RA_OF_ASC_NODE":"83.0021","INCLINATION":"53.0541","ECCENTRICITY":"0.00018600","CENTER_NAME":"EARTH","MEAN_MOTION_DDOT":"0.0000000000000","REV_AT_EPOCH":"10103","MEAN_ELEMENT_THEORY":"SGP4","NORAD_CAT_ID":"48013","MEAN_MOTION_DOT":"0.00000573","EPHEMERIS_TYPE":"0","SITE":"AFETR","MEAN_MOTION":"15.06400351","REF_FRAME":"TEME","TLE_LINE2":"2 48013  53.0541  83.0021 0001860  42.7835 317.3298 15.06400351101037","MEAN_ANOMALY":"317.3298","EPOCH":"2023-01-10T11:54:06.325920","RCS_SIZE":"LARGE"},{"TLE_LINE2":"2 48014  53.0523  48.0980 0002775  27.3282 332.7853 15.06390289101579","REF_FRAME":"TEME","MEAN_ANOMALY":"332.7853","RCS_SIZE":"LARGE","EPOCH":"2023-01-10T12:17:21.432768","REV_AT_EPOCH":"10157","MEAN_ELEMENT_THEORY":"SGP4","NORAD_CAT_ID":"48014","MEAN_MOTION_DOT":"-0.00001899","EPHEMERIS_TYPE":"0","SITE":"AFETR","MEAN_MOTION":"15.06390289","RA_OF_ASC_NODE":"48.0980","INCLINATION":"53.0523","ECCENTRICITY":"0.00027750","CENTER_NAME":"EARTH","MEAN_MOTION_DDOT":"0.0000000000000","BSTAR":"-0.00010861000000","DECAY_DATE":null,"TIME_SYSTEM":"UTC","OBJECT_TYPE":"PAYLOAD","ELEMENT_SET_NO":"999","PERIAPSIS":"545.322","FILE":"3739038","PERIOD":"95.593","GP_ID":"222662873","SEMIMAJOR_AXIS":"6925.378","OBJECT_ID":"2021-024AP","APOAPSIS":"549.165","OBJECT_NAME":"STARLINK-2283","COUNTRY_CODE":"US","CLASSIFICATION_TYPE":"U","LAUNCH_DATE":"2021-03-24","TLE_LINE1":"1 48014U 21024AP  23010.51205362 -.00001899  00000-0 -10861-3 0  9994","ARG_OF_PERICENTER":"27.3282"},{"INCLINATION":"53.0544","ECCENTRICITY":"0.00025560","RA_OF_ASC_NODE":"33.3078","CENTER_NAME":"EARTH","MEAN_MOTION_DDOT":"0.0000000000000","DECAY_DATE":null,"BSTAR":"0.00007283200000","MEAN_ANOMALY":"324.5538","RCS_SIZE":"LARGE","EPOCH":"2023-01-10T11:23:37.576608","REF_FRAME":"TEME","TLE_LINE2":"2 48016  53.0544  33.3078 0002556  35.5621 324.5538 15.06398397101773","MEAN_ELEMENT_THEORY":"SGP4","NORAD_CAT_ID":"48016","REV_AT_EPOCH":"10177","MEAN_MOTION":"15.06398397","EPHEMERIS_TYPE":"0","MEAN_MOTION_DOT":"0.00000803","SITE":"AFETR","OBJECT_ID":"2021-024AR","SEMIMAJOR_AXIS":"6925.353","APOAPSIS":"548.989","OBJECT_NAME":"STARLINK-2284","COUNTRY_CODE":"US","CLASSIFICATION_TYPE":"U","LAUNCH_DATE":"2021-03-24","TLE_LINE1":"1 48016U 21024AR  23010.47474047  .00000803  00000-0  72832-4 0  9998","ARG_OF_PERICENTER":"35.5621","TIME_SYSTEM":"UTC","OBJECT_TYPE":"PAYLOAD","ELEMENT_SET_NO":"999","PERIAPSIS":"545.448","FILE":"3739038","GP_ID":"222663114","PERIOD":"95.592"},{"PERIOD":"95.592","GP_ID":"222720858","FILE":"3739267","PERIAPSIS":"546.004","ELEMENT_SET_NO":"999","OBJECT_TYPE":"PAYLOAD","TIME_SYSTEM":"UTC","ARG_OF_PERICENTER":"54.2377","TLE_LINE1":"1 48018U 21024AT  23010.66363739 -.00000279  00000-0  20572-6 0  9990","LAUNCH_DATE":"2021-03-24","CLASSIFICATION_TYPE":"U","COUNTRY_CODE":"US","APOAPSIS":"548.437","OBJECT_NAME":"STARLINK-2282","SEMIMAJOR_AXIS":"6925.356","OBJECT_ID":"2021-024AT","SITE":"AFETR","MEAN_MOTION_DOT":"-0.00000279","EPHEMERIS_TYPE":"0","MEAN_MOTION":"15.06397721","REV_AT_EPOCH":"10083","NORAD_CAT_ID":"48018","MEAN_ELEMENT_THEORY":"SGP4","TLE_LINE2":"2 48018  53.0540 102.4494 0001757  54.2377 305.8775 15.06397721100830","REF_FRAME":"TEME","RCS_SIZE":"LARGE","EPOCH":"2023-01-10T15:55:38.270496","MEAN_ANOMALY":"305.8775","BSTAR":"0.00000020572000","DECAY_DATE":null,"MEAN_MOTION_DDOT":"0.0000000000000","CENTER_NAME":"EARTH","RA_OF_ASC_NODE":"102.4494","ECCENTRICITY":"0.00017570","INCLINATION":"53.0540"},{"EPOCH":"2023-01-10T14:42:37.065600","RCS_SIZE":"LARGE","MEAN_ANOMALY":"308.8241","REF_FRAME":"TEME","TLE_LINE2":"2 48019  53.0555  92.4644 0001679  51.2898 308.8241 15.06404938100908","MEAN_MOTION":"15.06404938","SITE":"AFETR","MEAN_MOTION_DOT":"0.00001899","EPHEMERIS_TYPE":"0","NORAD_CAT_ID":"48019","MEAN_ELEMENT_THEORY":"SGP4","REV_AT_EPOCH":"10090","MEAN_MOTION_DDOT":"0.0000000000000","CENTER_NAME":"EARTH","ECCENTRICITY":"0.00016790","INCLINATION":"53.0555","RA_OF_ASC_NODE":"92.4644","DECAY_DATE":null,"BSTAR":"0.00014636000000","ELEMENT_SET_NO":"999","OBJECT_TYPE":"PAYLOAD","TIME_SYSTEM":"UTC","GP_ID":"222719113","PERIOD":"95.592","PERIAPSIS":"546.036","FILE":"3739267","OBJECT_NAME":"STARLINK-2285","APOAPSIS":"548.361","OBJECT_ID":"2021-024AU","SEMIMAJOR_AXIS":"6925.333","ARG_OF_PERICENTER":"51.2898","TLE_LINE1":"1 48019U 21024AU  23010.61292900  .00001899  00000-0  14636-3 0  9996","LAUNCH_DATE":"2021-03-24","COUNTRY_CODE":"US","CLASSIFICATION_TYPE":"U"}];
